[{"OBJECT_NAME":"AMC-3","OBJECT_ID":"1997-050A","EPOCH":"2026-03-03T12:01:12.005760","MEAN_MOTION":1.00271903,"ECCENTRICITY":0.0003457,"INCLINATION":7.8875,"RA_OF_ASC_NODE":65.2838,"ARG_OF_PERICENTER":286.2963,"MEAN_ANOMALY":277.9753,"EPHEMERIS_TYPE":0,"CLASSIFICATION_TYPE":"U","NORAD_CAT_ID":24936,"ELEMENT_SET_NO":999,"REV_AT_EPOCH":5137,"BSTAR":0,"MEAN_MOTION_DOT":-2.73e-6,"MEAN_MOTION_DDOT":0},{"OBJECT_NAME":"NSS-11","OBJECT_ID":"2000-059A","EPOCH":"2026-03-03T18:20:06.288288","MEAN_MOTION":1.00271788,"ECCENTRICITY":0.0003165,"INCLINATION":1.8544,"RA_OF_ASC_NODE":82.6801,"ARG_OF_PERICENTER":264.2804,"MEAN_ANOMALY":265.5762,"EPHEMERIS_TYPE":0,"CLASSIFICATION_TYPE":"U","NORAD_CAT_ID":26554,"ELEMENT_SET_NO":999,"REV_AT_EPOCH":4023,"BSTAR":0,"MEAN_MOTION_DOT":1.2e-7,"MEAN_MOTION_DDOT":0},{"OBJECT_NAME":"AMC-6","OBJECT_ID":"2000-067A","EPOCH":"2026-03-03T16:51:22.291776","MEAN_MOTION":1.00271572,"ECCENTRICITY":0.0003128,"INCLINATION":0.0504,"RA_OF_ASC_NODE":314.5839,"ARG_OF_PERICENTER":25.2053,"MEAN_ANOMALY":299.442,"EPHEMERIS_TYPE":0,"CLASSIFICATION_TYPE":"U","NORAD_CAT_ID":26580,"ELEMENT_SET_NO":999,"REV_AT_EPOCH":9283,"BSTAR":0,"MEAN_MOTION_DOT":7.4e-7,"MEAN_MOTION_DDOT":0},{"OBJECT_NAME":"AMC-11","OBJECT_ID":"2004-017A","EPOCH":"2026-03-03T15:15:31.476672","MEAN_MOTION":1.00271978,"ECCENTRICITY":0.0003207,"INCLINATION":0.0394,"RA_OF_ASC_NODE":79.1201,"ARG_OF_PERICENTER":268.3588,"MEAN_ANOMALY":291.6831,"EPHEMERIS_TYPE":0,"CLASSIFICATION_TYPE":"U","NORAD_CAT_ID":28252,"ELEMENT_SET_NO":999,"REV_AT_EPOCH":7980,"BSTAR":0,"MEAN_MOTION_DOT":-6.4e-7,"MEAN_MOTION_DDOT":0},{"OBJECT_NAME":"AMC-15","OBJECT_ID":"2004-041A","EPOCH":"2026-03-03T15:17:16.310112","MEAN_MOTION":1.00272742,"ECCENTRICITY":0.0002426,"INCLINATION":0.0565,"RA_OF_ASC_NODE":294.9239,"ARG_OF_PERICENTER":55.6647,"MEAN_ANOMALY":295.0748,"EPHEMERIS_TYPE":0,"CLASSIFICATION_TYPE":"U","NORAD_CAT_ID":28446,"ELEMENT_SET_NO":999,"REV_AT_EPOCH":7824,"BSTAR":0,"MEAN_MOTION_DOT":-1.03e-6,"MEAN_MOTION_DDOT":0},{"OBJECT_NAME":"NSS-10","OBJECT_ID":"2005-003A","EPOCH":"2026-03-03T19:02:02.270112","MEAN_MOTION":1.00271376,"ECCENTRICITY":0.0003264,"INCLINATION":6.1861,"RA_OF_ASC_NODE":71.7281,"ARG_OF_PERICENTER":275.6438,"MEAN_ANOMALY":62.2295,"EPHEMERIS_TYPE":0,"CLASSIFICATION_TYPE":"U","NORAD_CAT_ID":28526,"ELEMENT_SET_NO":999,"REV_AT_EPOCH":5209,"BSTAR":0,"MEAN_MOTION_DOT":-2.62e-6,"MEAN_MOTION_DDOT":0},{"OBJECT_NAME":"ASTRA 1KR","OBJECT_ID":"2006-012A","EPOCH":"2026-03-03T19:18:00.739008","MEAN_MOTION":1.0027193,"ECCENTRICITY":0.0003422,"INCLINATION":0.2022,"RA_OF_ASC_NODE":81.824,"ARG_OF_PERICENTER":244.2506,"MEAN_ANOMALY":143.9787,"EPHEMERIS_TYPE":0,"CLASSIFICATION_TYPE":"U","NORAD_CAT_ID":29055,"ELEMENT_SET_NO":999,"REV_AT_EPOCH":4464,"BSTAR":0,"MEAN_MOTION_DOT":1.05e-6,"MEAN_MOTION_DDOT":0},{"OBJECT_NAME":"ASTRA 1L","OBJECT_ID":"2007-016A","EPOCH":"2026-03-03T19:05:39.422688","MEAN_MOTION":1.00271302,"ECCENTRICITY":0.0003324,"INCLINATION":1.0493,"RA_OF_ASC_NODE":82.4266,"ARG_OF_PERICENTER":274.0043,"MEAN_ANOMALY":67.0781,"EPHEMERIS_TYPE":0,"CLASSIFICATION_TYPE":"U","NORAD_CAT_ID":31306,"ELEMENT_SET_NO":999,"REV_AT_EPOCH":4392,"BSTAR":0,"MEAN_MOTION_DOT":-1.97e-6,"MEAN_MOTION_DDOT":0},{"OBJECT_NAME":"ASTRA 4A","OBJECT_ID":"2007-057A","EPOCH":"2026-03-03T19:14:01.122432","MEAN_MOTION":1.00273491,"ECCENTRICITY":0.0002472,"INCLINATION":0.0544,"RA_OF_ASC_NODE":292.3421,"ARG_OF_PERICENTER":53.879,"MEAN_ANOMALY":108.646,"EPHEMERIS_TYPE":0,"CLASSIFICATION_TYPE":"U","NORAD_CAT_ID":32299,"ELEMENT_SET_NO":999,"REV_AT_EPOCH":5058,"BSTAR":0,"MEAN_MOTION_DOT":1.9e-7,"MEAN_MOTION_DDOT":0},{"OBJECT_NAME":"ASTRA 1M","OBJECT_ID":"2008-057A","EPOCH":"2026-03-03T14:10:00.255936","MEAN_MOTION":1.00273498,"ECCENTRICITY":7.06e-5,"INCLINATION":0.0332,"RA_OF_ASC_NODE":59.5563,"ARG_OF_PERICENTER":12.5335,"MEAN_ANOMALY":320.9435,"EPHEMERIS_TYPE":0,"CLASSIFICATION_TYPE":"U","NORAD_CAT_ID":33436,"ELEMENT_SET_NO":999,"REV_AT_EPOCH":4467,"BSTAR":0,"MEAN_MOTION_DOT":1.06e-6,"MEAN_MOTION_DDOT":0},{"OBJECT_NAME":"NSS-9","OBJECT_ID":"2009-008A","EPOCH":"2026-03-03T18:22:06.096576","MEAN_MOTION":1.00272768,"ECCENTRICITY":0.0002174,"INCLINATION":0.9891,"RA_OF_ASC_NODE":83.7108,"ARG_OF_PERICENTER":252.2271,"MEAN_ANOMALY":284.165,"EPHEMERIS_TYPE":0,"CLASSIFICATION_TYPE":"U","NORAD_CAT_ID":33749,"ELEMENT_SET_NO":999,"REV_AT_EPOCH":6246,"BSTAR":0,"MEAN_MOTION_DOT":5.8e-7,"MEAN_MOTION_DDOT":0},{"OBJECT_NAME":"SES-7 (PROTOSTAR 2)","OBJECT_ID":"2009-027A","EPOCH":"2026-03-03T17:48:38.594304","MEAN_MOTION":1.00268714,"ECCENTRICITY":0.0001457,"INCLINATION":0.0238,"RA_OF_ASC_NODE":125.3887,"ARG_OF_PERICENTER":184.903,"MEAN_ANOMALY":226.6523,"EPHEMERIS_TYPE":0,"CLASSIFICATION_TYPE":"U","NORAD_CAT_ID":34941,"ELEMENT_SET_NO":999,"REV_AT_EPOCH":6157,"BSTAR":0,"MEAN_MOTION_DOT":0,"MEAN_MOTION_DDOT":0},{"OBJECT_NAME":"NSS-12","OBJECT_ID":"2009-058A","EPOCH":"2026-03-03T17:11:02.920128","MEAN_MOTION":1.00272227,"ECCENTRICITY":0.0005035,"INCLINATION":0.0227,"RA_OF_ASC_NODE":281.7226,"ARG_OF_PERICENTER":45.6644,"MEAN_ANOMALY":148.8308,"EPHEMERIS_TYPE":0,"CLASSIFICATION_TYPE":"U","NORAD_CAT_ID":36032,"ELEMENT_SET_NO":999,"REV_AT_EPOCH":5986,"BSTAR":0,"MEAN_MOTION_DOT":5.8e-7,"MEAN_MOTION_DDOT":0},{"OBJECT_NAME":"SES-1","OBJECT_ID":"2010-016A","EPOCH":"2026-03-03T15:18:23.702112","MEAN_MOTION":1.00272415,"ECCENTRICITY":0.0002555,"INCLINATION":0.0543,"RA_OF_ASC_NODE":291.8219,"ARG_OF_PERICENTER":41.0567,"MEAN_ANOMALY":317.107,"EPHEMERIS_TYPE":0,"CLASSIFICATION_TYPE":"U","NORAD_CAT_ID":36516,"ELEMENT_SET_NO":999,"REV_AT_EPOCH":5797,"BSTAR":0,"MEAN_MOTION_DOT":-1.29e-6,"MEAN_MOTION_DDOT":0},{"OBJECT_NAME":"ASTRA 3B","OBJECT_ID":"2010-021A","EPOCH":"2026-03-03T19:19:23.105856","MEAN_MOTION":1.00271422,"ECCENTRICITY":0.0003056,"INCLINATION":1.1957,"RA_OF_ASC_NODE":84.9406,"ARG_OF_PERICENTER":278.8937,"MEAN_ANOMALY":111.0622,"EPHEMERIS_TYPE":0,"CLASSIFICATION_TYPE":"U","NORAD_CAT_ID":36581,"ELEMENT_SET_NO":999,"REV_AT_EPOCH":5781,"BSTAR":0,"MEAN_MOTION_DOT":1.24e-6,"MEAN_MOTION_DDOT":0},{"OBJECT_NAME":"SES-3","OBJECT_ID":"2011-035A","EPOCH":"2026-03-03T15:17:53.750688","MEAN_MOTION":1.00272106,"ECCENTRICITY":0.0003566,"INCLINATION":1.0539,"RA_OF_ASC_NODE":84.3151,"ARG_OF_PERICENTER":263.7611,"MEAN_ANOMALY":299.7796,"EPHEMERIS_TYPE":0,"CLASSIFICATION_TYPE":"U","NORAD_CAT_ID":37748,"ELEMENT_SET_NO":999,"REV_AT_EPOCH":5353,"BSTAR":0,"MEAN_MOTION_DOT":-1.15e-6,"MEAN_MOTION_DDOT":0},{"OBJECT_NAME":"ASTRA 1N","OBJECT_ID":"2011-041A","EPOCH":"2026-03-03T14:10:00.255936","MEAN_MOTION":1.00273393,"ECCENTRICITY":0.0004082,"INCLINATION":0.0684,"RA_OF_ASC_NODE":18.5363,"ARG_OF_PERICENTER":359.5223,"MEAN_ANOMALY":14.9782,"EPHEMERIS_TYPE":0,"CLASSIFICATION_TYPE":"U","NORAD_CAT_ID":37775,"ELEMENT_SET_NO":999,"REV_AT_EPOCH":4346,"BSTAR":0,"MEAN_MOTION_DOT":1.05e-6,"MEAN_MOTION_DDOT":0}]
