AMC-3                   
1 24936U 97050A   26062.50083340 -.00000273  00000+0  00000+0 0  9995
2 24936   7.8875  65.2838 0003457 286.2963 277.9753  1.00271903 51377
NSS-11                  
1 26554U 00059A   26062.76396167  .00000012  00000+0  00000+0 0  9998
2 26554   1.8544  82.6801 0003165 264.2804 265.5762  1.00271788 40238
AMC-6                   
1 26580U 00067A   26062.70234134  .00000074  00000+0  00000+0 0  9993
2 26580   0.0504 314.5839 0003128  25.2053 299.4420  1.00271572 92833
AMC-11                  
1 28252U 04017A   26062.63578098 -.00000064  00000+0  00000+0 0  9992
2 28252   0.0394  79.1201 0003207 268.3588 291.6831  1.00271978 79808
AMC-15                  
1 28446U 04041A   26062.63699433 -.00000103  00000+0  00000+0 0  9995
2 28446   0.0565 294.9239 0002426  55.6647 295.0748  1.00272742 78248
NSS-10                  
1 28526U 05003A   26062.79308183 -.00000262  00000+0  00000+0 0  9995
2 28526   6.1861  71.7281 0003264 275.6438  62.2295  1.00271376 52092
ASTRA 1KR               
1 29055U 06012A   26062.80417522  .00000105  00000+0  00000+0 0  9999
2 29055   0.2022  81.8240 0003422 244.2506 143.9787  1.00271930 44646
ASTRA 1L                
1 31306U 07016A   26062.79559517 -.00000197  00000+0  00000+0 0  9997
2 31306   1.0493  82.4266 0003324 274.0043  67.0781  1.00271302 43925
ASTRA 4A                
1 32299U 07057A   26062.80140188  .00000019  00000+0  00000+0 0  9998
2 32299   0.0544 292.3421 0002472  53.8790 108.6460  1.00273491 50580
ASTRA 1M                
1 33436U 08057A   26062.59028074  .00000106  00000+0  00000+0 0  9995
2 33436   0.0332  59.5563 0000706  12.5335 320.9435  1.00273498 44675
NSS-9                   
1 33749U 09008A   26062.76534834  .00000058  00000+0  00000+0 0  9990
2 33749   0.9891  83.7108 0002174 252.2271 284.1650  1.00272768 62464
SES-7 (PROTOSTAR 2)     
1 34941U 09027A   26062.74211336  .00000000  00000+0  00000+0 0  9990
2 34941   0.0238 125.3887 0001457 184.9030 226.6523  1.00268714 61576
NSS-12                  
1 36032U 09058A   26062.71600602  .00000058  00000+0  00000+0 0  9995
2 36032   0.0227 281.7226 0005035  45.6644 148.8308  1.00272227 59860
SES-1                   
1 36516U 10016A   26062.63777433 -.00000129  00000+0  00000+0 0  9996
2 36516   0.0543 291.8219 0002555  41.0567 317.1070  1.00272415 57976
ASTRA 3B                
1 36581U 10021A   26062.80512854  .00000124  00000+0  00000+0 0  9991
2 36581   1.1957  84.9406 0003056 278.8937 111.0622  1.00271422 57810
SES-3                   
1 37748U 11035A   26062.63742767 -.00000115  00000+0  00000+0 0  9993
2 37748   1.0539  84.3151 0003566 263.7611 299.7796  1.00272106 53531
ASTRA 1N                
1 37775U 11041A   26062.59028074  .00000105  00000+0  00000+0 0  9991
2 37775   0.0684  18.5363 0004082 359.5223  14.9782  1.00273393 43464
